STARLINK-36829          
1 67957U 26037AB  26064.66667824 -.01515608  66368-3 -38472-2 0  9991
2 67957  42.9996 223.2173 0001653 282.6908  94.9549 15.94628939  2553
STARLINK-36799          
1 67958U 26037AC  26064.66667824 -.01518178  66823-3 -37776-2 0  9999
2 67958  42.9994 223.1966 0001682 283.9444 101.9941 15.95000029  2552
STARLINK-36834          
1 67959U 26037AD  26064.66667824 -.01499676  65486-3 -36850-2 0  9997
2 67959  42.9996 223.1817 0001532 278.9970 112.6411 15.95230234  2556
STARLINK-36841          
1 67960U 26037AE  26064.66667824 -.01521390  67168-3 -37603-2 0  9994
2 67960  42.9995 223.1892 0001448 280.2517 108.3858 15.95125495  2558
STARLINK-36912          
1 67961U 26038A   26064.66667824 -.01572209  76003-3 -30798-2 0  9997
2 67961  97.2764  74.6278 0001093  90.6568 271.7290 16.00267875  2559
STARLINK-36881          
1 67962U 26038B   26064.66667824 -.01561490  75103-3 -30460-2 0  9994
2 67962  97.2761  74.6284 0001049  96.3769 267.8586 16.00340839  2557
STARLINK-36357          
1 67963U 26038C   26064.66667824 -.01565598  75679-3 -30125-2 0  9994
2 67963  97.2759  74.6307 0001078  94.2650 274.8562 16.00582175  2552
STARLINK-36349          
1 67964U 26038D   26064.66667824 -.01566913  75695-3 -30354-2 0  9999
2 67964  97.2757  74.6294 0001105  97.5370 269.1392 16.00463865  2554
STARLINK-36806          
1 67965U 26038E   26064.66667824 -.01555422  74879-3 -29703-2 0  9992
2 67965  97.2754  74.6317 0001064  90.9942 280.9582 16.00714096  2551
STARLINK-36820          
1 67966U 26038F   26064.66667824 -.01557261  75145-3 -29540-2 0  9992
2 67966  97.2754  74.6329 0001041  92.9138 281.4122 16.00831814  2553
STARLINK-36819          
1 67967U 26038G   26064.66667824 -.01554357  74989-3 -29277-2 0  9998
2 67967  97.2753  74.6338 0001118  87.9487 288.9322 16.00954616  2559
STARLINK-36812          
1 67968U 26038H   26064.66667824 -.01552098  74875-3 -29062-2 0  9995
2 67968  97.2750  74.6345 0001080  85.6168 293.4660 16.01058008  2551
STARLINK-36709          
1 67969U 26038J   26064.66667824 -.01552933  75171-3 -28654-2 0  9990
2 67969  97.2751  74.6369 0001100  82.0966 302.2075 16.01313975  2555
STARLINK-36319          
1 67970U 26038K   26064.66667824 -.01558834  75595-3 -28972-2 0  9991
2 67970  97.2749  74.6355 0001171  76.9512 304.7214 16.01188425  2525
STARLINK-36710          
1 67971U 26038L   26064.66667824 -.01545798  74663-3 -28268-2 0  9990
2 67971  97.2747  74.6384 0001038  89.9553 297.5325 16.01468954  2550
STARLINK-36894          
1 67972U 26038M   26064.66667824 -.01551228  75269-3 -28149-2 0  9997
2 67972  97.2744  74.6394 0001182  74.2276 315.8835 16.01603717  2556
